     2.10           N: GPS NAV DATA                         RINEX VERSION / TYPE
teqc  2013Mar15     gpsops              20140516 00:23:18UTCPGM / RUN BY / DATE
Linux 2.4.21-27.ELsmp|Opteron|gcc -static|Linux x86_64|=+   COMMENT
GLPS                                    MARKER NAME         COMMENT
42005M002                               MARKER NUMBER       COMMENT
-33801.4662 -6377516.5323 -82154.3508                       COMMENT
                                                            COMMENT
This data is provided as a public service by NASA/JPL.      COMMENT
No warranty is expressed or implied regarding suitability   COMMENT
for use.  For further information, contact:                 COMMENT
Dave Stowers, NASA/JPL m/s 238-600                          COMMENT
4800 Oak Grove Drive, Pasadena CA 91109 USA                 COMMENT
                                                            END OF HEADER
 7 14  5 16  0  0  0.0 3.467118367553D-04 4.206412995700D-12 0.000000000000D+00
    2.700000000000D+01 3.590625000000D+01 4.614477925813D-09 4.512690901975D-02
    1.955777406693D-06 7.295405259356D-03 4.395842552185D-07 5.153629701614D+03
    4.320000000000D+05 2.980232238770D-08 1.714044747244D+00 9.499490261078D-08
    9.732225798612D-01 3.768750000000D+02-2.841238381166D+00-8.571071305238D-09
    2.196520065306D-10 0.000000000000D+00 1.792000000000D+03 0.000000000000D+00
    2.000000000000D+00 0.000000000000D+00-1.071020960808D-08 2.700000000000D+01
    4.248000000000D+05 4.000000000000D+00
 9 14  5 16  0  0  0.0 3.278567455709D-04 2.842170943040D-12 0.000000000000D+00
    7.800000000000D+01 3.921875000000D+01 4.420184118411D-09 1.099679865052D+00
    1.672655344009D-06 1.719052984845D-02 1.147389411926D-06 5.153676155090D+03
    4.320000000000D+05-9.313225746155D-08 1.693550148556D+00-3.278255462646D-07
    9.817600790708D-01 3.667812500000D+02 1.803737781970D+00-8.483210502625D-09
    2.353669468352D-10 0.000000000000D+00 1.792000000000D+03 0.000000000000D+00
    2.800000000000D+00 0.000000000000D+00-6.053596735001D-09 7.800000000000D+01
    4.248000000000D+05 4.000000000000D+00
10 14  5 16  0  0  0.0-1.256950199604D-04-1.591615728103D-12 0.000000000000D+00
    2.600000000000D+01-2.765625000000D+01 4.758769650429D-09-2.409124643746D+00
   -1.417472958565D-06 1.355329155922D-02 9.646639227867D-06 5.153730503082D+03
    4.320000000000D+05 4.470348358154D-08-3.905729028948D-01-1.192092895508D-07
    9.423140071836D-01 1.823437500000D+02 8.633857030001D-01-7.875328039024D-09
   -5.939533119681D-10 0.000000000000D+00 1.792000000000D+03 0.000000000000D+00
    2.000000000000D+00 0.000000000000D+00-2.793967723846D-09 2.600000000000D+01
    4.248000000000D+05 4.000000000000D+00
11 14  5 16  0  0  0.0-4.892442375422D-04-3.183231456205D-12 0.000000000000D+00
    5.300000000000D+01 3.509375000000D+01 6.779925268244D-09 2.143434361502D-01
    2.086162567139D-06 1.491634442937D-02 6.087124347687D-06 5.153692089081D+03
    4.320000000000D+05-1.415610313416D-07-1.769748491071D+00 6.519258022308D-08
    8.901090162705D-01 2.245312500000D+02 1.284402002807D+00-9.375033364913D-09
    3.714440435639D-10 0.000000000000D+00 1.792000000000D+03 0.000000000000D+00
    2.000000000000D+00 0.000000000000D+00-1.210719347000D-08 5.300000000000D+01
    4.248000000000D+05 4.000000000000D+00
13 14  5 16  0  0  0.0-5.746260285378D-07-3.865352482535D-12 0.000000000000D+00
    1.720000000000D+02 1.470625000000D+02 3.685510659169D-09 2.370768264426D+00
    7.698312401772D-06 5.371742649004D-03 9.933486580849D-06 5.153601379395D+03
    4.320000000000D+05-1.117587089539D-08 7.492052380340D-01 4.842877388000D-08
    9.779758830439D-01 1.947187500000D+02 2.254425988360D+00-7.644961300467D-09
    1.985797002130D-10 0.000000000000D+00 1.792000000000D+03 0.000000000000D+00
    2.000000000000D+00 0.000000000000D+00-1.117587089539D-08 1.720000000000D+02
    4.248000000000D+05 4.000000000000D+00
17 14  5 16  0  0  0.0-9.346147999167D-05-3.069544618484D-12 0.000000000000D+00
    4.700000000000D+01-2.418750000000D+01 4.207318108830D-09 2.799833229367D+00
   -1.253560185432D-06 9.304144419730D-03 1.141056418419D-05 5.153592952728D+03
    4.320000000000D+05 2.793967723846D-08-2.456035907594D+00-1.732259988785D-07
    9.686900895333D-01 1.603125000000D+02-2.100166269841D+00-7.540314084348D-09
    4.514473760239D-10 0.000000000000D+00 1.792000000000D+03 0.000000000000D+00
    2.000000000000D+00 0.000000000000D+00-1.024454832077D-08 4.700000000000D+01
    4.248000000000D+05 4.000000000000D+00
20 14  5 16  0  0  0.0 1.898552291095D-04 3.865352482535D-12 0.000000000000D+00
    5.100000000000D+01-2.681250000000D+01 5.373795268714D-09-1.359467926770D+00
   -1.467764377594D-06 5.774849210866D-03 9.063631296158D-06 5.153792884827D+03
    4.320000000000D+05 6.146728992462D-08-4.659926716309D-01 1.359730958939D-07
    9.270008536722D-01 1.860625000000D+02 1.331122386568D+00-8.387135072127D-09
   -8.093194256883D-10 0.000000000000D+00 1.792000000000D+03 0.000000000000D+00
    2.000000000000D+00 0.000000000000D+00-8.381903171539D-09 5.100000000000D+01
    4.248000000000D+05 4.000000000000D+00
23 14  5 16  0  0  0.0-2.080947160721D-05-3.069544618484D-12 0.000000000000D+00
    4.400000000000D+01 1.353437500000D+02 4.260891768959D-09 1.703567875091D+00
    7.139518857002D-06 9.320857585408D-03 1.103244721889D-05 5.153800708771D+03
    4.320000000000D+05-1.098960638046D-07 6.523147619282D-01 8.009374141693D-08
    9.522547564329D-01 1.617500000000D+02-2.791095052906D+00-8.003547665600D-09
    2.107230631757D-11 0.000000000000D+00 1.792000000000D+03 0.000000000000D+00
    2.000000000000D+00 0.000000000000D+00-2.002343535423D-08 4.400000000000D+01
    4.248000000000D+05 4.000000000000D+00
28 14  5 15 23 59 44.0 3.550550900400D-04 2.842170943040D-12 0.000000000000D+00
    2.400000000000D+01-1.497812500000D+02 3.815516074417D-09-2.642252887227D+00
   -7.709488272667D-06 1.912484888453D-02 7.072463631630D-06 5.153676292419D+03
    4.319840000000D+05 2.868473529816D-07 2.801467089423D+00 5.960464477539D-08
    9.868422418490D-01 2.498125000000D+02-1.716288058972D+00-7.503883995460D-09
   -9.964700784071D-11 0.000000000000D+00 1.792000000000D+03 0.000000000000D+00
    2.000000000000D+00 0.000000000000D+00-1.071020960808D-08 2.400000000000D+01
    4.248000000000D+05 4.000000000000D+00
 4 14  5 16  0  0  0.0 6.880145519972D-06 0.000000000000D+00 0.000000000000D+00
    1.770000000000D+02 1.631250000000D+01 5.473442276555D-09-1.630574200920D+00
    9.480863809586D-07 1.056376285851D-02 4.477798938751D-06 5.153722501755D+03
    4.320000000000D+05 1.955777406693D-07-1.459792430443D+00 7.264316082001D-08
    9.379335974305D-01 2.795625000000D+02 1.096718333692D+00-8.416064848597D-09
    1.296482575132D-10 0.000000000000D+00 1.792000000000D+03 0.000000000000D+00
    2.000000000000D+00 0.000000000000D+00-6.519258022308D-09 1.770000000000D+02
    4.248300000000D+05 4.000000000000D+00
26 14  5 16  0  0  0.0 7.756706327200D-05-1.182343112305D-11 0.000000000000D+00
    1.300000000000D+01 1.237187500000D+02 3.915520239992D-09 1.574210640078D+00
    6.174668669701D-06 2.138374070637D-02 9.346753358841D-06 5.153698987961D+03
    4.320000000000D+05-3.203749656677D-07 7.404990614439D-01-4.246830940247D-07
    9.753695379534D-01 2.070312500000D+02 1.282578892353D+00-7.927115910482D-09
    2.403671551140D-10 0.000000000000D+00 1.792000000000D+03 0.000000000000D+00
    2.000000000000D+00 0.000000000000D+00-6.053596735001D-09 1.300000000000D+01
    4.312500000000D+05 4.000000000000D+00
